EUTELSAT 7A             
1 28187U 04008A   25305.58295718  .00000118  00000+0  00000+0 0  9996
2 28187   5.2489  74.7136 0001107 172.0194 225.0682  1.00272979 79072
EUTELSAT 174A           
1 28924U 05052A   25305.53586617  .00000024  00000+0  00000+0 0  9997
2 28924   3.6389  79.3353 0006404 142.5420 186.1391  1.00270489 50047
EUTELSAT HOTBIRD 13B    
1 29270U 06032A   25305.61710402  .00000168  00000+0  00000+0 0  9990
2 29270   1.0689  84.7115 0003694 131.0797  80.6295  1.00270140 45028
EUTELSAT HOTBIRD 13C    
1 33459U 08065A   25302.32591028 -.00000088  00000+0  00000+0 0  9990
2 33459   2.3523  81.9104 0006142 154.2398 266.6285  1.00271861 45032
EUTELSAT 36B            
1 36101U 09065A   25305.62057071  .00000123  00000+0  00000+0 0  9998
2 36101   0.0535  30.4417 0006220 194.5380  90.1004  1.00272279 58428
EUTELSAT KA-SAT 9A      
1 37258U 10069A   25305.25561549  .00000073  00000+0  00000+0 0  9991
2 37258   0.0589 319.5425 0002151 218.0291 324.3095  1.00270786 41721
EUTELSAT 7 WEST A       
1 37816U 11051A   25305.60887065 -.00000049  00000+0  00000+0 0  9990
2 37816   0.0745  30.3086 0006467 180.1492  42.6000  1.00271572 51598
EUTELSAT 16A            
1 37836U 11057A   25305.61372400  .00000115  00000+0  00000+0 0  9994
2 37836   0.0685  20.1677 0005646 205.8891  52.0484  1.00272783  5047
